[
  {
    "COMMENT": "GENERATED VIA SPACETRACK.ORG API",
    "ORIGINATOR": "18 SPCS",
    "NORAD_CAT_ID": "27386",
    "OBJECT_NAME": "ENVISAT",
    "OBJECT_TYPE": "PAYLOAD",
    "CLASSIFICATION_TYPE": "U",
    "INTLDES": "02009A",
    "EPOCH": "2023-04-17 19:57:34",
    "EPOCH_MICROSECONDS": "269696",
    "MEAN_MOTION": "14.38318595",
    "ECCENTRICITY": "0.0001336",
    "INCLINATION": "98.2259",
    "RA_OF_ASC_NODE": "80.3317",
    "ARG_OF_PERICENTER": "83.8722",
    "MEAN_ANOMALY": "335.2653",
    "EPHEMERIS_TYPE": "0",
    "ELEMENT_SET_NO": "999",
    "REV_AT_EPOCH": "10728",
    "BSTAR": "0.00018801",
    "MEAN_MOTION_DOT": "0.00000531",
    "MEAN_MOTION_DDOT": "0",
    "FILE": "3889269",
    "TLE_LINE0": "0 ENVISAT",
    "TLE_LINE1": "1 27386U 02009A   23107.83164664  .00000531  00000-0  18801-3 0  9998",
    "TLE_LINE2": "2 27386  98.2259  80.3317 0001336  83.8722 335.2653 14.38318595107280",
    "OBJECT_ID": "2002-009A",
    "OBJECT_NUMBER": "27386",
    "SEMIMAJOR_AXIS": "7142.196",
    "PERIOD": "100.117",
    "APOGEE": "765.015",
    "PERIGEE": "763.107",
    "DECAYED": "0"
  },
  {
    "COMMENT": "GENERATED VIA SPACETRACK.ORG API",
    "ORIGINATOR": "18 SPCS",
    "NORAD_CAT_ID": "27386",
    "OBJECT_NAME": "ENVISAT",
    "OBJECT_TYPE": "PAYLOAD",
    "CLASSIFICATION_TYPE": "U",
    "INTLDES": "02009A",
    "EPOCH": "2023-04-17 21:30:13",
    "EPOCH_MICROSECONDS": "635360",
    "MEAN_MOTION": "14.38318658",
    "ECCENTRICITY": "0.0001335",
    "INCLINATION": "98.2259",
    "RA_OF_ASC_NODE": "80.3933",
    "ARG_OF_PERICENTER": "83.8158",
    "MEAN_ANOMALY": "308.3005",
    "EPHEMERIS_TYPE": "0",
    "ELEMENT_SET_NO": "999",
    "REV_AT_EPOCH": "10722",
    "BSTAR": "0.00018726",
    "MEAN_MOTION_DOT": "0.00000529",
    "MEAN_MOTION_DDOT": "0",
    "FILE": "3889391",
    "TLE_LINE0": "0 ENVISAT",
    "TLE_LINE1": "1 27386U 02009A   23107.89599115  .00000529  00000-0  18726-3 0  9990",
    "TLE_LINE2": "2 27386  98.2259  80.3933 0001335  83.8158 308.3005 14.38318658107222",
    "OBJECT_ID": "2002-009A",
    "OBJECT_NUMBER": "27386",
    "SEMIMAJOR_AXIS": "7142.196",
    "PERIOD": "100.117",
    "APOGEE": "765.015",
    "PERIGEE": "763.108",
    "DECAYED": "0"
  },
  {
    "COMMENT": "GENERATED VIA SPACETRACK.ORG API",
    "ORIGINATOR": "18 SPCS",
    "NORAD_CAT_ID": "27386",
    "OBJECT_NAME": "ENVISAT",
    "OBJECT_TYPE": "PAYLOAD",
    "CLASSIFICATION_TYPE": "U",
    "INTLDES": "02009A",
    "EPOCH": "2023-04-18 09:48:06",
    "EPOCH_MICROSECONDS": "928128",
    "MEAN_MOTION": "14.38319182",
    "ECCENTRICITY": "0.0001335",
    "INCLINATION": "98.226",
    "RA_OF_ASC_NODE": "80.8843",
    "ARG_OF_PERICENTER": "83.8465",
    "MEAN_ANOMALY": "80.0241",
    "EPHEMERIS_TYPE": "0",
    "ELEMENT_SET_NO": "999",
    "REV_AT_EPOCH": "10729",
    "BSTAR": "0.00018583",
    "MEAN_MOTION_DOT": "0.00000524",
    "MEAN_MOTION_DDOT": "0",
    "FILE": "3889684",
    "TLE_LINE0": "0 ENVISAT",
    "TLE_LINE1": "1 27386U 02009A   23108.40841352  .00000524  00000-0  18583-3 0  9997",
    "TLE_LINE2": "2 27386  98.2260  80.8843 0001335  83.8465  80.0241 14.38319182107296",
    "OBJECT_ID": "2002-009A",
    "OBJECT_NUMBER": "27386",
    "SEMIMAJOR_AXIS": "7142.194",
    "PERIOD": "100.117",
    "APOGEE": "765.013",
    "PERIGEE": "763.106",
    "DECAYED": "0"
  },
  {
    "COMMENT": "GENERATED VIA SPACETRACK.ORG API",
    "ORIGINATOR": "18 SPCS",
    "NORAD_CAT_ID": "27386",
    "OBJECT_NAME": "ENVISAT",
    "OBJECT_TYPE": "PAYLOAD",
    "CLASSIFICATION_TYPE": "U",
    "INTLDES": "02009A",
    "EPOCH": "2023-04-18 20:52:50",
    "EPOCH_MICROSECONDS": "883168",
    "MEAN_MOTION": "14.38319756",
    "ECCENTRICITY": "0.000133",
    "INCLINATION": "98.226",
    "RA_OF_ASC_NODE": "81.3266",
    "ARG_OF_PERICENTER": "83.6959",
    "MEAN_ANOMALY": "309.0309",
    "EPHEMERIS_TYPE": "0",
    "ELEMENT_SET_NO": "999",
    "REV_AT_EPOCH": "10743",
    "BSTAR": "0.00018743",
    "MEAN_MOTION_DOT": "0.00000529",
    "MEAN_MOTION_DDOT": "0",
    "FILE": "3889892",
    "TLE_LINE0": "0 ENVISAT",
    "TLE_LINE1": "1 27386U 02009A   23108.87003337  .00000529  00000-0  18743-3 0  9994",
    "TLE_LINE2": "2 27386  98.2260  81.3266 0001330  83.6959 309.0309 14.38319756107434",
    "OBJECT_ID": "2002-009A",
    "OBJECT_NUMBER": "27386",
    "SEMIMAJOR_AXIS": "7142.192",
    "PERIOD": "100.117",
    "APOGEE": "765.007",
    "PERIGEE": "763.107",
    "DECAYED": "0"
  },
  {
    "COMMENT": "GENERATED VIA SPACETRACK.ORG API",
    "ORIGINATOR": "18 SPCS",
    "NORAD_CAT_ID": "27386",
    "OBJECT_NAME": "ENVISAT",
    "OBJECT_TYPE": "PAYLOAD",
    "CLASSIFICATION_TYPE": "U",
    "INTLDES": "02009A",
    "EPOCH": "2023-04-18 20:52:50",
    "EPOCH_MICROSECONDS": "883168",
    "MEAN_MOTION": "14.38319756",
    "ECCENTRICITY": "0.000133",
    "INCLINATION": "98.226",
    "RA_OF_ASC_NODE": "81.3266",
    "ARG_OF_PERICENTER": "83.6959",
    "MEAN_ANOMALY": "309.0309",
    "EPHEMERIS_TYPE": "0",
    "ELEMENT_SET_NO": "999",
    "REV_AT_EPOCH": "10736",
    "BSTAR": "0.00018743",
    "MEAN_MOTION_DOT": "0.00000529",
    "MEAN_MOTION_DDOT": "0",
    "FILE": "3889987",
    "TLE_LINE0": "0 ENVISAT",
    "TLE_LINE1": "1 27386U 02009A   23108.87003337  .00000529  00000-0  18743-3 0  9994",
    "TLE_LINE2": "2 27386  98.2260  81.3266 0001330  83.6959 309.0309 14.38319756107366",
    "OBJECT_ID": "2002-009A",
    "OBJECT_NUMBER": "27386",
    "SEMIMAJOR_AXIS": "7142.192",
    "PERIOD": "100.117",
    "APOGEE": "765.007",
    "PERIGEE": "763.107",
    "DECAYED": "0"
  },
  {
    "COMMENT": "GENERATED VIA SPACETRACK.ORG API",
    "ORIGINATOR": "18 SPCS",
    "NORAD_CAT_ID": "27386",
    "OBJECT_NAME": "ENVISAT",
    "OBJECT_TYPE": "PAYLOAD",
    "CLASSIFICATION_TYPE": "U",
    "INTLDES": "02009A",
    "EPOCH": "2023-04-19 05:07:17",
    "EPOCH_MICROSECONDS": "533632",
    "MEAN_MOTION": "14.38320351",
    "ECCENTRICITY": "0.0001329",
    "INCLINATION": "98.2261",
    "RA_OF_ASC_NODE": "81.6556",
    "ARG_OF_PERICENTER": "83.6552",
    "MEAN_ANOMALY": "285.9607",
    "EPHEMERIS_TYPE": "0",
    "ELEMENT_SET_NO": "999",
    "REV_AT_EPOCH": "10748",
    "BSTAR": "0.00020048",
    "MEAN_MOTION_DOT": "0.00000569",
    "MEAN_MOTION_DDOT": "0",
    "FILE": "3890119",
    "TLE_LINE0": "0 ENVISAT",
    "TLE_LINE1": "1 27386U 02009A   23109.21339738  .00000569  00000-0  20048-3 0  9995",
    "TLE_LINE2": "2 27386  98.2261  81.6556 0001329  83.6552 285.9607 14.38320351107488",
    "OBJECT_ID": "2002-009A",
    "OBJECT_NUMBER": "27386",
    "SEMIMAJOR_AXIS": "7142.190",
    "PERIOD": "100.117",
    "APOGEE": "765.005",
    "PERIGEE": "763.106",
    "DECAYED": "0"
  },
  {
    "COMMENT": "GENERATED VIA SPACETRACK.ORG API",
    "ORIGINATOR": "18 SPCS",
    "NORAD_CAT_ID": "27386",
    "OBJECT_NAME": "ENVISAT",
    "OBJECT_TYPE": "PAYLOAD",
    "CLASSIFICATION_TYPE": "U",
    "INTLDES": "02009A",
    "EPOCH": "2023-04-19 09:13:20",
    "EPOCH_MICROSECONDS": "760384",
    "MEAN_MOTION": "14.38320556",
    "ECCENTRICITY": "0.0001325",
    "INCLINATION": "98.2262",
    "RA_OF_ASC_NODE": "81.8194",
    "ARG_OF_PERICENTER": "83.5683",
    "MEAN_ANOMALY": "90.2938",
    "EPHEMERIS_TYPE": "0",
    "ELEMENT_SET_NO": "999",
    "REV_AT_EPOCH": "10750",
    "BSTAR": "0.00019961",
    "MEAN_MOTION_DOT": "0.00000566",
    "MEAN_MOTION_DDOT": "0",
    "FILE": "3890299",
    "TLE_LINE0": "0 ENVISAT",
    "TLE_LINE1": "1 27386U 02009A   23109.38426806  .00000566  00000-0  19961-3 0  9995",
    "TLE_LINE2": "2 27386  98.2262  81.8194 0001325  83.5683  90.2938 14.38320556107503",
    "OBJECT_ID": "2002-009A",
    "OBJECT_NUMBER": "27386",
    "SEMIMAJOR_AXIS": "7142.190",
    "PERIOD": "100.117",
    "APOGEE": "765.001",
    "PERIGEE": "763.108",
    "DECAYED": "0"
  },
  {
    "COMMENT": "GENERATED VIA SPACETRACK.ORG API",
    "ORIGINATOR": "18 SPCS",
    "NORAD_CAT_ID": "27386",
    "OBJECT_NAME": "ENVISAT",
    "OBJECT_TYPE": "PAYLOAD",
    "CLASSIFICATION_TYPE": "U",
    "INTLDES": "02009A",
    "EPOCH": "2023-04-19 10:36:26",
    "EPOCH_MICROSECONDS": "836128",
    "MEAN_MOTION": "14.38320331",
    "ECCENTRICITY": "0.0001327",
    "INCLINATION": "98.2262",
    "RA_OF_ASC_NODE": "81.8746",
    "ARG_OF_PERICENTER": "83.579",
    "MEAN_ANOMALY": "28.9246",
    "EPHEMERIS_TYPE": "0",
    "ELEMENT_SET_NO": "999",
    "REV_AT_EPOCH": "10744",
    "BSTAR": "0.00018323",
    "MEAN_MOTION_DOT": "0.00000516",
    "MEAN_MOTION_DDOT": "0",
    "FILE": "3890383",
    "TLE_LINE0": "0 ENVISAT",
    "TLE_LINE1": "1 27386U 02009A   23109.44197727  .00000516  00000-0  18323-3 0  9995",
    "TLE_LINE2": "2 27386  98.2262  81.8746 0001327  83.5790  28.9246 14.38320331107441",
    "OBJECT_ID": "2002-009A",
    "OBJECT_NUMBER": "27386",
    "SEMIMAJOR_AXIS": "7142.190",
    "PERIOD": "100.117",
    "APOGEE": "765.003",
    "PERIGEE": "763.108",
    "DECAYED": "0"
  },
  {
    "COMMENT": "GENERATED VIA SPACETRACK.ORG API",
    "ORIGINATOR": "18 SPCS",
    "NORAD_CAT_ID": "27386",
    "OBJECT_NAME": "ENVISAT",
    "OBJECT_TYPE": "PAYLOAD",
    "CLASSIFICATION_TYPE": "U",
    "INTLDES": "02009A",
    "EPOCH": "2023-04-19 18:43:42",
    "EPOCH_MICROSECONDS": "716928",
    "MEAN_MOTION": "14.38320842",
    "ECCENTRICITY": "0.0001322",
    "INCLINATION": "98.2262",
    "RA_OF_ASC_NODE": "82.1989",
    "ARG_OF_PERICENTER": "83.6693",
    "MEAN_ANOMALY": "339.9239",
    "EPHEMERIS_TYPE": "0",
    "ELEMENT_SET_NO": "999",
    "REV_AT_EPOCH": "10749",
    "BSTAR": "0.0001891",
    "MEAN_MOTION_DOT": "0.00000534",
    "MEAN_MOTION_DDOT": "0",
    "FILE": "3890520",
    "TLE_LINE0": "0 ENVISAT",
    "TLE_LINE1": "1 27386U 02009A   23109.78035552  .00000534  00000-0  18910-3 0  9991",
    "TLE_LINE2": "2 27386  98.2262  82.1989 0001322  83.6693 339.9239 14.38320842107491",
    "OBJECT_ID": "2002-009A",
    "OBJECT_NUMBER": "27386",
    "SEMIMAJOR_AXIS": "7142.189",
    "PERIOD": "100.117",
    "APOGEE": "764.998",
    "PERIGEE": "763.110",
    "DECAYED": "0"
  }
]